CAS-2T & KS-1Q          
1 41847U 16066G   20188.41057963  .00000070  00000-0  20710-4 0  9998
2 41847  98.6525 239.1185 0365918 172.2706 188.4340 14.38075532192140
NAYIF-1 (EO-88)         
1 42017U 17008BX  20187.83773697  .00001023  00000-0  41920-4 0  9994
2 42017  97.3591 255.1316 0004526 251.5041 108.5706 15.26540805188356
MAX VALIER SAT          
1 42778U 17036P   20188.40044030  .00000659  00000-0  31215-4 0  9995
2 42778  97.3036 241.5114 0010935 322.4858  37.5614 15.22649263168614
RADFXSAT (FOX-1B)       
1 43017U 17073E   20187.65666707  .00000477  00000-0  42661-4 0  9995
2 43017  97.7223  99.1897 0256801 351.4254   8.2610 14.78960132141853
FOX-1D (AO-92)          
1 43137U 18004AC  20188.12952619  .00000668  00000-0  30386-4 0  9999
2 43137  97.4450 259.1638 0008967   1.2505 358.8753 15.24153417137885
DIWATA-2B               
1 43678U 18084H   20188.39133292 -.00000108  00000-0 -50691-5 0  9997
2 43678  97.8866 306.7962 0011203 111.9395 248.2994 14.91636805 91846
ES'HAIL 2               
1 43700U 18090A   20188.29567928  .00000132  00000-0  00000+0 0  9994
2 43700   0.0182  31.6746 0001653  94.7402 290.5247  1.00271381  6148
FOX-1CLIFF (AO-95)      
1 43770U 18099N   20188.18243314 -.00000169  00000-0 -10240-4 0  9992
2 43770  97.7051 259.2364 0015750 131.0848 229.1736 14.95000188 86714
ITASAT 1                
1 43786U 18099AE  20188.44278677 -.00000234  00000-0 -16008-4 0  9999
2 43786  97.7068 259.9254 0016477 124.2805 235.9979 14.95339166 86779
JY1SAT (JO-97)          
1 43803U 18099AX  20188.18743498 -.00000091  00000-0 -30128-5 0  9999
2 43803  97.7025 259.4886 0016411 125.7493 234.5257 14.95515711 86737
PSAT2 (NO-104)          
1 44354U 19036R   20187.51164569  .00008996  00000-0  12940-3 0  9995
2 44354  28.5289 261.9948 0363678 143.8469 218.7288 15.03673011 56546
BRICSAT2 (NO-103)       
1 44355U 19036S   20187.85107694  .00016900  00000-0  23464-3 0  9996
2 44355  28.5290 250.1090 0341565 163.1601 198.0648 15.09224946 56692
JAISAT-1                
1 44419U 19038F   20187.87742285  .00000545  00000-0  34619-4 0  9995
2 44419  97.5395 149.2580 0023226  68.7168 291.6540 15.12804090 55380
DUCHIFAT-3              
1 44854U 19089C   20188.14465851  .00000229  00000-0  24941-4 0  9992
2 44854  36.9689 347.8919 0008215 226.4018 133.6058 14.99078878 31100
RS-44 & BREEZE-KM R/B   
1 44909U 19096E   20187.88786163  .00000008  00000-0 -13321-4 0  9999
2 44909  82.5219 343.0616 0217398 183.1243 176.8516 12.79708172 24543
ORBITAL FACTORY 2 (OF-2)
1 45113U 19071C   20188.44943051  .00001154  00000-0  46728-4 0  9993
2 45113  51.6442 271.7805 0013423 125.0611 235.1632 15.33410220 24040
HUSKYSAT-1              
1 45119U 19071J   20187.70838512  .00000996  00000-0  41676-4 0  9992
2 45119  51.6437 275.0837 0012750 119.0048 241.2214 15.33620465 23925
